NORAD_CAT_ID,OBJECT_NAME,OBJECT_TYPE,EPOCH,MEAN_MOTION,ECCENTRICITY,INCLINATION,RA_OF_ASC_NODE,ARG_OF_PERICENTER,MEAN_ANOMALY,BSTAR,MEAN_MOTION_DOT,MEAN_MOTION_DDOT,TLE_LINE0,TLE_LINE1,TLE_LINE2,SEMIMAJOR_AXIS,PERIOD,APOGEE,PERIGEE,DECAYED
51123.0,STARLINK-3392,PAYLOAD,2022-06-10 12:41:25,15.08834219,0.0001693,53.2197,311.0392,50.096,310.0181,1.0242e-05,-1.25e-06,0.0,0 STARLINK-3392,1 51123U 22005V   22161.52876339 -.00000125  00000-0  10242-4 0  9998,2 51123  53.2197 311.0392 0001693  50.0960 310.0181 15.08834219 22334,6917.898,95.438,540.934,538.592,0.0
51123.0,STARLINK-3392,PAYLOAD,2022-06-10 17:27:34,15.0883725,0.000179,53.2193,310.1472,52.6983,307.4172,5.7269e-05,6.23e-06,0.0,0 STARLINK-3392,1 51123U 22005V   22161.72748062  .00000623  00000-0  57269-4 0  9993,2 51123  53.2193 310.1472 0001790  52.6983 307.4172 15.08837250 23441,6917.889,95.438,540.992,538.515,0.0
51123.0,STARLINK-3392,PAYLOAD,2022-06-10 19:02:57,15.08837291,0.0001797,53.2193,309.85,52.6008,307.5148,5.7126e-05,6.21e-06,0.0,0 STARLINK-3392,1 51123U 22005V   22161.79372075  .00000621  00000-0  57126-4 0  9997,2 51123  53.2193 309.8500 0001797  52.6008 307.5148 15.08837291 22373,6917.889,95.438,540.997,538.511,0.0
51123.0,STARLINK-3392,PAYLOAD,2022-06-11 02:59:56,15.08742585,0.0002842,53.2226,308.3626,45.9737,314.1489,0.0010059,0.00015715,0.0,0 STARLINK-3392,1 51123U 22005V   22162.12495632  .00015715  00000-0  10059-2 0  9992,2 51123  53.2226 308.3626 0002842  45.9737 314.1489 15.08742585 23508,6918.178000000001,95.444,542.009,538.077,0.0
51123.0,STARLINK-3392,PAYLOAD,2022-06-11 09:21:27,15.08821404,0.0001986,53.2199,307.1740000000001,51.4423,308.6747,1.716e-05,-1.5e-07,0.0,0 STARLINK-3392,1 51123U 22005V   22162.38989745 -.00000015  00000-0  17160-4 0  9993,2 51123  53.2199 307.1740 0001986  51.4423 308.6747 15.08821404 23540,6917.937,95.439,541.1759999999998,538.428,0.0
51123.0,STARLINK-3392,PAYLOAD,2022-06-11 18:53:45,15.08838081,0.0001818,53.2197,305.3888,17.8999,342.2057,7.7475e-05,9.45e-06,0.0,0 STARLINK-3392,1 51123U 22005V   22162.78732656  .00000945  00000-0  77475-4 0  9990,2 51123  53.2197 305.3888 0001818  17.8999 342.2057 15.08838081 23603,6917.886,95.438,541.009,538.494,0.0
51123.0,STARLINK-3392,PAYLOAD,2022-06-12 09:12:12,15.08847695,0.000173,53.2193,302.7138,45.0408,315.0724,7.0995e-05,8.42e-06,0.0,0 STARLINK-3392,1 51123U 22005V   22163.38348054  .00000842  00000-0  70995-4 0  9998,2 51123  53.2193 302.7138 0001730  45.0408 315.0724 15.08847695 23698,6917.857,95.437,540.919,538.525,0.0
51123.0,STARLINK-3392,PAYLOAD,2022-06-12 18:44:30,15.08856031,0.00017,53.2187,300.9284,46.2673,313.846,0.00011521,1.547e-05,0.0,0 STARLINK-3392,1 51123U 22005V   22163.78091088  .00001547  00000-0  11521-3 0  9996,2 51123  53.2187 300.9284 0001700  46.2673 313.8460 15.08856031 23751,6917.831,95.437,540.872,538.52,0.0
51123.0,STARLINK-3392,PAYLOAD,2022-06-13 02:41:26,15.08847711,0.0001739,53.2192,299.4426,48.1244,311.9896,7.2769e-05,8.7e-06,0.0,0 STARLINK-3392,1 51123U 22005V   22164.11211610  .00000870  00000-0  72769-4 0  9999,2 51123  53.2192 299.4426 0001739  48.1244 311.9896 15.08847711 23807,6917.857,95.437,540.925,538.519,0.0
51123.0,STARLINK-3392,PAYLOAD,2022-06-13 09:02:59,15.08842386,0.0001801,53.2174,298.2535,42.5844,317.5287,0.00015028,2.105e-05,0.0,0 STARLINK-3392,1 51123U 22005V   22164.37707608  .00002105  00000-0  15028-3 0  9991,2 51123  53.2174 298.2535 0001801  42.5844 317.5287 15.08842386 22762,6917.873000000001,95.437,540.984,538.492,0.0
51123.0,STARLINK-3392,PAYLOAD,2022-06-13 18:35:18,15.08844027,0.000166,53.2186,296.4683,42.9672,317.145,4.1422e-05,3.71e-06,0.0,0 STARLINK-3392,1 51123U 22005V   22164.77451759  .00000371  00000-0  41422-4 0  9999,2 51123  53.2186 296.4683 0001660  42.9672 317.1450 15.08844027 23904,6917.868,95.437,540.881,538.585,0.0
51123.0,STARLINK-3392,PAYLOAD,2022-06-14 12:04:32,15.08869454,0.0001976,53.2174,293.198,41.231,318.8831,-0.00031865,-5.36e-05,0.0,0 STARLINK-3392,1 51123U 22005V   22165.50314971 -.00005360  00000-0 -31865-3 0  9999,2 51123  53.2174 293.1980 0001976  41.2310 318.8831 15.08869454 24011,6917.79,95.436,541.0219999999998,538.288,0.0
51123.0,STARLINK-3392,PAYLOAD,2022-06-14 15:15:18,15.08845527,0.0001665999999999,53.2175,292.6022,42.6353,317.4768,4.4304e-05,4.17e-06,0.0,0 STARLINK-3392,1 51123U 22005V   22165.63563244  .00000417  00000-0  44304-4 0  9991,2 51123  53.2175 292.6022 0001666  42.6353 317.4768 15.08845527 24032,6917.863,95.437,540.881,538.576,0.0
51123.0,STARLINK-3392,PAYLOAD,2022-06-15 11:55:20,15.08831923,0.0001822,53.2177,288.7372,40.2736,319.8391,-8.0337e-05,-1.566e-05,0.0,0 STARLINK-3392,1 51123U 22005V   22166.49676556 -.00001566  00000-0 -80337-4 0  9991,2 51123  53.2177 288.7372 0001822  40.2736 319.8391 15.08831923 24168,6917.905,95.438,541.031,538.51,0.0
51123.0,STARLINK-3392,PAYLOAD,2022-06-15 19:52:16,15.08833702,0.0001835,53.2176,287.25,42.2838,317.8296,-2.6709e-05,-7.13e-06,0.0,0 STARLINK-3392,1 51123U 22005V   22166.82796419 -.00000713  00000-0 -26709-4 0  9995,2 51123  53.2176 287.2500 0001835  42.2838 317.8296 15.08833702 23138,6917.9,95.438,541.034,538.495,0.0
51123.0,STARLINK-3392,PAYLOAD,2022-06-16 00:38:25,15.08838098,0.0001829,53.2176,286.358,43.3161,316.7975,5.1748e-06,-2.06e-06,0.0,0 STARLINK-3392,1 51123U 22005V   22167.02668087 -.00000206  00000-0  51748-5 0  9995,2 51123  53.2176 286.3580 0001829  43.3161 316.7975 15.08838098 23168,6917.886,95.438,541.016,538.486,0.0
51123.0,STARLINK-3392,PAYLOAD,2022-06-18 16:13:50,15.0883219,0.0001914,53.2174,274.4646,38.3794,321.7334,0.0002917,4.356e-05,0.0,0 STARLINK-3392,1 51123U 22005V   22169.67628180  .00004356  00000-0  29170-3 0  9999,2 51123  53.2174 274.4646 0001914  38.3794 321.7334 15.08832190 23564,6917.904,95.438,541.0930000000002,538.445,0.0
51123.0,STARLINK-3392,PAYLOAD,2022-06-19 16:04:37,15.08841687,0.000205,53.2169,270.0048,37.3578,322.7556,0.00024878,3.674e-05,0.0,0 STARLINK-3392,1 51123U 22005V   22170.66988358  .00003674  00000-0  24878-3 0  9998,2 51123  53.2169 270.0048 0002050  37.3578 322.7556 15.08841687 23712,6917.875,95.437,541.158,538.322,0.0
51123.0,STARLINK-3392,PAYLOAD,2022-06-20 12:44:39,15.08840838,0.0001914,53.2168,266.1377,43.4456,316.6686,-2.3166e-05,-6.57e-06,0.0,0 STARLINK-3392,1 51123U 22005V   22171.53101240 -.00000657  00000-0 -23166-4 0  9992,2 51123  53.2168 266.1377 0001914  43.4456 316.6686 15.08840838 24920,6917.878000000002,95.438,541.067,538.419,0.0
51123.0,STARLINK-3392,PAYLOAD,2022-06-20 15:55:26,15.08834313,0.0001894,53.218,265.5439,52.4877,307.6287,-3.8257e-05,-8.97e-06,0.0,0 STARLINK-3392,1 51123U 22005V   22171.66349673 -.00000897  00000-0 -38257-4 0  9993,2 51123  53.2180 265.5439 0001894  52.4877 307.6287 15.08834313 23860,6917.898,95.438,541.073,538.453,0.0
51123.0,STARLINK-3392,PAYLOAD,2022-06-21 11:00:03,15.08842766,0.0001864,53.2181,261.9751,44.9643,315.15,-5.6993e-05,-1.195e-05,0.0,0 STARLINK-3392,1 51123U 22005V   22172.45837007 -.00001195  00000-0 -56993-4 0  9993,2 51123  53.2181 261.9751 0001864  44.9643 315.1500 15.08842766 23988,6917.871999999999,95.437,541.026,538.447,0.0
51123.0,STARLINK-3392,PAYLOAD,2022-06-21 15:46:12,15.08838267,0.0001908,53.2182,261.0835,46.8722,313.2429,-7.2699e-05,-1.445e-05,0.0,0 STARLINK-3392,1 51123U 22005V   22172.65709318 -.00001445  00000-0 -72699-4 0  9997,2 51123  53.2182 261.0835 0001908  46.8722 313.2429 15.08838267 25095,6917.886,95.438,541.071,538.431,0.0
51123.0,STARLINK-3392,PAYLOAD,2022-06-22 12:26:13,15.08837432,0.0001806,53.2183,257.2172,44.1715,315.9421,9.377e-05,1.204e-05,0.0,0 STARLINK-3392,1 51123U 22005V   22173.51820901  .00001204  00000-0  93770-4 0  9999,2 51123  53.2183 257.2172 0001806  44.1715 315.9421 15.08837432 24146,6917.888000000001,95.438,541.003,538.504,0.0
51123.0,STARLINK-3392,PAYLOAD,2022-06-22 15:36:59,15.08832721,0.0001815,53.2175,256.6223,40.5167,319.596,4.9947e-05,5.07e-06,0.0,0 STARLINK-3392,1 51123U 22005V   22173.65069376  .00000507  00000-0  49947-4 0  9997,2 51123  53.2175 256.6223 0001815  40.5167 319.5960 15.08832721 24164,6917.903,95.438,541.023,538.512,0.0
51123.0,STARLINK-3392,PAYLOAD,2022-06-22 21:58:32,15.08831944,0.0001759,53.2181,255.4332,41.0291,319.0833,4.1258e-05,3.68e-06,0.0,0 STARLINK-3392,1 51123U 22005V   22173.91565537  .00000368  00000-0  41258-4 0  9998,2 51123  53.2181 255.4332 0001759  41.0291 319.0833 15.08831944 25284,6917.905,95.438,540.987,538.553,0.0
51123.0,STARLINK-3392,PAYLOAD,2022-06-23 07:30:51,15.08837285,0.0001979,53.2168,253.6489,38.8701,321.2433,7.0189e-05,8.29e-06,0.0,0 STARLINK-3392,1 51123U 22005V   22174.31309224  .00000829  00000-0  70189-4 0  9999,2 51123  53.2168 253.6489 0001979  38.8701 321.2433 15.08837285 24268,6917.889,95.438,541.123,538.385,0.0
51123.0,STARLINK-3392,PAYLOAD,2022-06-23 13:52:23,15.08839037,0.0001999,53.2168,252.4597,40.2053,319.9087,0.00010432,1.372e-05,0.0,0 STARLINK-3392,1 51123U 22005V   22174.57805030  .00001372  00000-0  10432-3 0  9991,2 51123  53.2168 252.4597 0001999  40.2053 319.9087 15.08839037 25384,6917.8830000000025,95.438,541.131,538.365,0.0
51123.0,STARLINK-3392,PAYLOAD,2022-06-24 12:07:48,15.08836243,0.0001988,53.2176,248.2975,46.2514,313.8643,-4.043e-05,-9.32e-06,0.0,0 STARLINK-3392,1 51123U 22005V   22175.50541703 -.00000932  00000-0 -40430-4 0  9994,2 51123  53.2176 248.2975 0001988  46.2514 313.8643 15.08836243 25525,6917.892,95.438,541.132,538.382,0.0
51123.0,STARLINK-3392,PAYLOAD,2022-06-24 21:40:06,15.08835028,0.0001962,53.2177,246.5134,45.3188,314.7964,7.0692e-05,8.37e-06,0.0,0 STARLINK-3392,1 51123U 22005V   22175.90285534  .00000837  00000-0  70692-4 0  9990,2 51123  53.2177 246.5134 0001962  45.3188 314.7964 15.08835028 24506,6917.896,95.438,541.118,538.403,0.0
